start=new Date('2022-08-29T00:00:00.000Z').valueOf();
sats=[{"TLE_LINE2":"2 53559  53.2173 109.5943 0002811   9.1342 341.9663 15.78786838  1309","OBJECT_TYPE":"PAYLOAD","COUNTRY_CODE":"US","MEAN_MOTION_DDOT":"0.0000000000000","ELEMENT_SET_NO":"999","GP_ID":"211215522","SEMIMAJOR_AXIS":"6712.014","MEAN_MOTION_DOT":"-0.01198681","ECCENTRICITY":"0.00028110","CENTER_NAME":"EARTH","APOAPSIS":"335.766","TLE_LINE1":"1 53559U 22101AJ  22240.91667824 -.01198681  00000-0 -75119-2 0  9997","MEAN_ANOMALY":"341.9663","MEAN_MOTION":"15.78786838","EPHEMERIS_TYPE":"0","TIME_SYSTEM":"UTC","RA_OF_ASC_NODE":"109.5943","MEAN_ELEMENT_THEORY":"SGP4","BSTAR":"-0.00751190000000","PERIAPSIS":"331.992","FILE":"3550014","NORAD_CAT_ID":"53559","REV_AT_EPOCH":"130","INCLINATION":"53.2173","OBJECT_ID":"2022-101AJ","LAUNCH_DATE":"2022-08-19","REF_FRAME":"TEME","OBJECT_NAME":"STARLINK-4508","CLASSIFICATION_TYPE":"U","SITE":"AFETR","RCS_SIZE":null,"PERIOD":"91.209","EPOCH":"2022-08-28T22:00:00.999936","ARG_OF_PERICENTER":"9.1342","DECAY_DATE":null},{"CLASSIFICATION_TYPE":"U","OBJECT_NAME":"STARLINK-4564","DECAY_DATE":null,"ARG_OF_PERICENTER":"5.2375","EPOCH":"2022-08-28T22:00:00.999936","PERIOD":"91.204","RCS_SIZE":null,"SITE":"AFETR","OBJECT_ID":"2022-101AK","INCLINATION":"53.2173","REV_AT_EPOCH":"130","NORAD_CAT_ID":"53560","REF_FRAME":"TEME","LAUNCH_DATE":"2022-08-19","MEAN_ANOMALY":"348.1835","TLE_LINE1":"1 53560U 22101AK  22240.91667824 -.01198748  00000-0 -74814-2 0  9994","APOAPSIS":"335.806","CENTER_NAME":"EARTH","PERIAPSIS":"331.471","FILE":"3550014","MEAN_ELEMENT_THEORY":"SGP4","BSTAR":"-0.00748140000000","RA_OF_ASC_NODE":"109.5900","TIME_SYSTEM":"UTC","EPHEMERIS_TYPE":"0","MEAN_MOTION":"15.78871698","ELEMENT_SET_NO":"999","MEAN_MOTION_DDOT":"0.0000000000000","COUNTRY_CODE":"US","OBJECT_TYPE":"PAYLOAD","TLE_LINE2":"2 53560  53.2173 109.5900 0003229   5.2375 348.1835 15.78871698  1300","ECCENTRICITY":"0.00032290","MEAN_MOTION_DOT":"-0.01198748","SEMIMAJOR_AXIS":"6711.773","GP_ID":"211215810"},{"NORAD_CAT_ID":"53561","REV_AT_EPOCH":"130","OBJECT_ID":"2022-101AL","INCLINATION":"53.2173","LAUNCH_DATE":"2022-08-19","REF_FRAME":"TEME","CLASSIFICATION_TYPE":"U","OBJECT_NAME":"STARLINK-4563","RCS_SIZE":null,"PERIOD":"91.207","SITE":"AFETR","DECAY_DATE":null,"EPOCH":"2022-08-28T22:00:00.999936","ARG_OF_PERICENTER":"6.9963","OBJECT_TYPE":"PAYLOAD","COUNTRY_CODE":"US","MEAN_MOTION_DDOT":"0.0000000000000","TLE_LINE2":"2 53561  53.2173 109.5924 0003032   6.9963 345.0249 15.78821860  1301","ELEMENT_SET_NO":"999","GP_ID":"211214959","ECCENTRICITY":"0.00030320","SEMIMAJOR_AXIS":"6711.915","MEAN_MOTION_DOT":"-0.01198681","APOAPSIS":"335.815","TLE_LINE1":"1 53561U 22101AL  22240.91667824 -.01198681  00000-0 -74989-2 0  9994","CENTER_NAME":"EARTH","MEAN_ANOMALY":"345.0249","RA_OF_ASC_NODE":"109.5924","MEAN_ELEMENT_THEORY":"SGP4","BSTAR":"-0.00749890000000","MEAN_MOTION":"15.78821860","TIME_SYSTEM":"UTC","EPHEMERIS_TYPE":"0","PERIAPSIS":"331.745","FILE":"3550014"},{"REF_FRAME":"TEME","LAUNCH_DATE":"2022-08-19","INCLINATION":"53.2173","OBJECT_ID":"2022-101AM","NORAD_CAT_ID":"53562","REV_AT_EPOCH":"130","EPOCH":"2022-08-28T22:00:00.999936","ARG_OF_PERICENTER":"7.0382","DECAY_DATE":null,"SITE":"AFETR","RCS_SIZE":null,"PERIOD":"91.202","OBJECT_NAME":"STARLINK-4565","CLASSIFICATION_TYPE":"U","SEMIMAJOR_AXIS":"6711.678","MEAN_MOTION_DOT":"-0.01198708","ECCENTRICITY":"0.00030210","GP_ID":"211215668","ELEMENT_SET_NO":"999","TLE_LINE2":"2 53562  53.2173 109.5882 0003021   7.0382 347.3114 15.78905284  1309","OBJECT_TYPE":"PAYLOAD","COUNTRY_CODE":"US","MEAN_MOTION_DDOT":"0.0000000000000","PERIAPSIS":"331.516","FILE":"3550014","MEAN_MOTION":"15.78905284","EPHEMERIS_TYPE":"0","TIME_SYSTEM":"UTC","RA_OF_ASC_NODE":"109.5882","MEAN_ELEMENT_THEORY":"SGP4","BSTAR":"-0.00747060000000","MEAN_ANOMALY":"347.3114","CENTER_NAME":"EARTH","TLE_LINE1":"1 53562U 22101AM  22240.91667824 -.01198708  00000-0 -74706-2 0  9992","APOAPSIS":"335.571"},{"LAUNCH_DATE":"2022-08-19","REF_FRAME":"TEME","REV_AT_EPOCH":"130","NORAD_CAT_ID":"53563","INCLINATION":"53.2173","OBJECT_ID":"2022-101AN","SITE":"AFETR","PERIOD":"91.205","RCS_SIZE":null,"ARG_OF_PERICENTER":"5.4623","EPOCH":"2022-08-28T22:00:00.999936","DECAY_DATE":null,"OBJECT_NAME":"STARLINK-4561","CLASSIFICATION_TYPE":"U","GP_ID":"211215105","MEAN_MOTION_DOT":"-0.01198748","SEMIMAJOR_AXIS":"6711.823","ECCENTRICITY":"0.00032020","TLE_LINE2":"2 53563  53.2173 109.5905 0003202   5.4623 347.4991 15.78854241  1307","MEAN_MOTION_DDOT":"0.0000000000000","OBJECT_TYPE":"PAYLOAD","COUNTRY_CODE":"US","ELEMENT_SET_NO":"999","EPHEMERIS_TYPE":"0","TIME_SYSTEM":"UTC","MEAN_MOTION":"15.78854241","MEAN_ELEMENT_THEORY":"SGP4","BSTAR":"-0.00748750000000","RA_OF_ASC_NODE":"109.5905","FILE":"3550014","PERIAPSIS":"331.539","CENTER_NAME":"EARTH","TLE_LINE1":"1 53563U 22101AN  22240.91667824 -.01198748  00000-0 -74875-2 0  9994","APOAPSIS":"335.837","MEAN_ANOMALY":"347.4991"},{"MEAN_ANOMALY":"347.8952","TLE_LINE1":"1 53564U 22101AP  22240.91667824 -.01198769  00000-0 -74596-2 0  9998","APOAPSIS":"335.448","CENTER_NAME":"EARTH","PERIAPSIS":"331.446","FILE":"3550014","MEAN_ELEMENT_THEORY":"SGP4","BSTAR":"-0.00745960000000","RA_OF_ASC_NODE":"109.5864","TIME_SYSTEM":"UTC","EPHEMERIS_TYPE":"0","MEAN_MOTION":"15.78939276","ELEMENT_SET_NO":"999","MEAN_MOTION_DDOT":"0.0000000000000","OBJECT_TYPE":"PAYLOAD","COUNTRY_CODE":"US","TLE_LINE2":"2 53564  53.2173 109.5864 0002981   7.3785 347.8952 15.78939276  1308","ECCENTRICITY":"0.00029810","MEAN_MOTION_DOT":"-0.01198769","SEMIMAJOR_AXIS":"6711.582","GP_ID":"211215974","CLASSIFICATION_TYPE":"U","OBJECT_NAME":"STARLINK-4577","DECAY_DATE":null,"ARG_OF_PERICENTER":"7.3785","EPOCH":"2022-08-28T22:00:00.999936","PERIOD":"91.200","RCS_SIZE":null,"SITE":"AFETR","OBJECT_ID":"2022-101AP","INCLINATION":"53.2173","REV_AT_EPOCH":"130","NORAD_CAT_ID":"53564","REF_FRAME":"TEME","LAUNCH_DATE":"2022-08-19"},{"ECCENTRICITY":"0.00030260","SEMIMAJOR_AXIS":"6711.722","MEAN_MOTION_DOT":"-0.01198744","GP_ID":"211215378","ELEMENT_SET_NO":"999","OBJECT_TYPE":"PAYLOAD","COUNTRY_CODE":"US","MEAN_MOTION_DDOT":"0.0000000000000","TLE_LINE2":"2 53565  53.2173 109.5887 0003026   6.9424 346.9328 15.78889843  1301","PERIAPSIS":"331.556","FILE":"3550014","RA_OF_ASC_NODE":"109.5887","BSTAR":"-0.00747610000000","MEAN_ELEMENT_THEORY":"SGP4","MEAN_MOTION":"15.78889843","TIME_SYSTEM":"UTC","EPHEMERIS_TYPE":"0","MEAN_ANOMALY":"346.9328","APOAPSIS":"335.618","TLE_LINE1":"1 53565U 22101AQ  22240.91667824 -.01198744  00000-0 -74761-2 0  9996","CENTER_NAME":"EARTH","REF_FRAME":"TEME","LAUNCH_DATE":"2022-08-19","OBJECT_ID":"2022-101AQ","INCLINATION":"53.2173","NORAD_CAT_ID":"53565","REV_AT_EPOCH":"130","DECAY_DATE":null,"EPOCH":"2022-08-28T22:00:00.999936","ARG_OF_PERICENTER":"6.9424","RCS_SIZE":null,"PERIOD":"91.203","SITE":"AFETR","CLASSIFICATION_TYPE":"U","OBJECT_NAME":"STARLINK-4575"},{"ARG_OF_PERICENTER":"7.5980","EPOCH":"2022-08-28T22:00:00.999936","DECAY_DATE":null,"SITE":"AFETR","PERIOD":"91.199","RCS_SIZE":null,"OBJECT_NAME":"STARLINK-4576","CLASSIFICATION_TYPE":"U","REF_FRAME":"TEME","LAUNCH_DATE":"2022-08-19","INCLINATION":"53.2173","OBJECT_ID":"2022-101AR","REV_AT_EPOCH":"130","NORAD_CAT_ID":"53566","PERIAPSIS":"331.365","FILE":"3550014","TIME_SYSTEM":"UTC","EPHEMERIS_TYPE":"0","MEAN_MOTION":"15.78972936","MEAN_ELEMENT_THEORY":"SGP4","BSTAR":"-0.00744830000000","RA_OF_ASC_NODE":"109.5845","MEAN_ANOMALY":"348.6005","CENTER_NAME":"EARTH","TLE_LINE1":"1 53566U 22101AR  22240.91667824 -.01198781  00000-0 -74483-2 0  9999","APOAPSIS":"335.338","MEAN_MOTION_DOT":"-0.01198781","SEMIMAJOR_AXIS":"6711.486","ECCENTRICITY":"0.00029600","GP_ID":"211215833","ELEMENT_SET_NO":"999","TLE_LINE2":"2 53566  53.2173 109.5845 0002960   7.5980 348.6005 15.78972936  1303","MEAN_MOTION_DDOT":"0.0000000000000","OBJECT_TYPE":"PAYLOAD","COUNTRY_CODE":"US"},{"BSTAR":"-0.00746530000000","MEAN_ELEMENT_THEORY":"SGP4","RA_OF_ASC_NODE":"109.5869","EPHEMERIS_TYPE":"0","TIME_SYSTEM":"UTC","MEAN_MOTION":"15.78923073","PERIAPSIS":"331.604","FILE":"3550014","TLE_LINE1":"1 53567U 22101AS  22240.91667824 -.01198686  00000-0 -74653-2 0  9993","APOAPSIS":"335.381","CENTER_NAME":"EARTH","MEAN_ANOMALY":"345.7068","GP_ID":"211215523","ECCENTRICITY":"0.00028140","MEAN_MOTION_DOT":"-0.01198686","SEMIMAJOR_AXIS":"6711.628","MEAN_MOTION_DDOT":"0.0000000000000","COUNTRY_CODE":"US","OBJECT_TYPE":"PAYLOAD","TLE_LINE2":"2 53567  53.2173 109.5869 0002814   9.0988 345.7068 15.78923073  1308","ELEMENT_SET_NO":"999","PERIOD":"91.201","RCS_SIZE":null,"SITE":"AFETR","DECAY_DATE":null,"ARG_OF_PERICENTER":"9.0988","EPOCH":"2022-08-28T22:00:00.999936","CLASSIFICATION_TYPE":"U","OBJECT_NAME":"STARLINK-4585","LAUNCH_DATE":"2022-08-19","REF_FRAME":"TEME","REV_AT_EPOCH":"130","NORAD_CAT_ID":"53567","OBJECT_ID":"2022-101AS","INCLINATION":"53.2173"},{"REF_FRAME":"TEME","LAUNCH_DATE":"2022-08-19","OBJECT_ID":"2022-101AT","INCLINATION":"53.2174","REV_AT_EPOCH":"130","NORAD_CAT_ID":"53568","DECAY_DATE":null,"ARG_OF_PERICENTER":"7.5305","EPOCH":"2022-08-28T22:00:00.999936","PERIOD":"91.196","RCS_SIZE":null,"SITE":"AFETR","CLASSIFICATION_TYPE":"U","OBJECT_NAME":"STARLINK-4583","ECCENTRICITY":"0.00029720","MEAN_MOTION_DOT":"-0.01198702","SEMIMAJOR_AXIS":"6711.342","GP_ID":"211215811","ELEMENT_SET_NO":"999","MEAN_MOTION_DDOT":"0.0000000000000","COUNTRY_CODE":"US","OBJECT_TYPE":"PAYLOAD","TLE_LINE2":"2 53568  53.2174 109.5817 0002972   7.5305 350.0467 15.79024023  1304","FILE":"3550014","PERIAPSIS":"331.212","MEAN_ELEMENT_THEORY":"SGP4","BSTAR":"-0.00743030000000","RA_OF_ASC_NODE":"109.5817","TIME_SYSTEM":"UTC","EPHEMERIS_TYPE":"0","MEAN_MOTION":"15.79024023","MEAN_ANOMALY":"350.0467","TLE_LINE1":"1 53568U 22101AT  22240.91667824 -.01198702  00000-0 -74303-2 0  9995","APOAPSIS":"335.201","CENTER_NAME":"EARTH"}];
